{"type": "FeatureCollection", "features": [ {"type": "Feature", "properties": {"norad_id": 52912, "name": "GAOFEN-12 03", "group": "resource", "lat": -8.97459101839879, "lon": -117.10248104837711, "alt_km": 633.9394061129415, "timestamp": "2025-12-20T11:30:28.028942+00:00", "meta": {"OBJECT_NAME": "GAOFEN-12 03", "OBJECT_ID": "2022-069A", "EPOCH": "2025-12-20T03:26:00.710592", "MEAN_MOTION": 14.7962767, "ECCENTRICITY": 0.0002022, "INCLINATION": 97.8489, "RA_OF_ASC_NODE": 241.3206, "ARG_OF_PERICENTER": 53.9282, "MEAN_ANOMALY": 306.2117, "EPHEMERIS_TYPE": 0, "CLASSIFICATION_TYPE": "U", "NORAD_CAT_ID": 52912, "ELEMENT_SET_NO": 999, "REV_AT_EPOCH": 18813, "BSTAR": 0.00018504, "MEAN_MOTION_DOT": 1.337e-05, "MEAN_MOTION_DDOT": 0}, "tle": {"line1": "1 52912U 22069A   25354.14306378  .00001337  00000+0  18504-3 0  9993", "line2": "2 52912  97.8489 241.3206 0002022  53.9282 306.2117 14.79627670188139"}}, "geometry": {"type": "Point", "coordinates": [-117.10248104837711, -8.97459101839879]}}, {"type": "Feature", "properties": {"norad_id": 54754, "name": "SWOT", "group": "resource", "lat": -74.57787327200228, "lon": -136.28189833836197, "alt_km": 900.6211546135983, "timestamp": "2025-12-20T11:30:28.028952+00:00", "meta": {"OBJECT_NAME": "SWOT", "OBJECT_ID": "2022-173A", "EPOCH": "2025-12-20T03:19:06.261024", "MEAN_MOTION": 14.00167908, "ECCENTRICITY": 3.54e-05, "INCLINATION": 77.6109, "RA_OF_ASC_NODE": 277.0027, "ARG_OF_PERICENTER": 92.6118, "MEAN_ANOMALY": 267.5074, "EPHEMERIS_TYPE": 0, "CLASSIFICATION_TYPE": "U", "NORAD_CAT_ID": 54754, "ELEMENT_SET_NO": 999, "REV_AT_EPOCH": 15409, "BSTAR": 1.6701e-05, "MEAN_MOTION_DOT": 2.2e-07, "MEAN_MOTION_DDOT": 0}, "tle": {"line1": "1 54754U 22173A   25354.13826691  .00000022  00000+0  16701-4 0  9997", "line2": "2 54754  77.6109 277.0027 0000354  92.6118 267.5074 14.00167908154097"}}, "geometry": {"type": "Point", "coordinates": [-136.28189833836197, -74.57787327200228]}}, {"type": "Feature", "properties": {"norad_id": 57654, "name": "GAOFEN-12 04", "group": "resource", "lat": 16.40716794557727, "lon": 92.46631147320817, "alt_km": 630.8208103278266, "timestamp": "2025-12-20T11:30:28.028962+00:00", "meta": {"OBJECT_NAME": "GAOFEN-12 04", "OBJECT_ID": "2023-123A", "EPOCH": "2025-12-20T04:16:49.941984", "MEAN_MOTION": 14.79719538, "ECCENTRICITY": 0.0001236, "INCLINATION": 97.9127, "RA_OF_ASC_NODE": 269.8227, "ARG_OF_PERICENTER": 77.2148, "MEAN_ANOMALY": 282.9201, "EPHEMERIS_TYPE": 0, "CLASSIFICATION_TYPE": "U", "NORAD_CAT_ID": 57654, "ELEMENT_SET_NO": 999, "REV_AT_EPOCH": 12615, "BSTAR": 0.00012731, "MEAN_MOTION_DOT": 9.05e-06, "MEAN_MOTION_DDOT": 0}, "tle": {"line1": "1 57654U 23123A   25354.17835581  .00000905  00000+0  12731-3 0  9995", "line2": "2 57654  97.9127 269.8227 0001236  77.2148 282.9201 14.79719538126154"}}, "geometry": {"type": "Point", "coordinates": [92.46631147320817, 16.40716794557727]}}, {"type": "Feature", "properties": {"norad_id": 59065, "name": "PARS 1", "group": "resource", "lat": 71.76110740741782, "lon": 169.0207522094779, "alt_km": 431.4739333772395, "timestamp": "2025-12-20T11:30:28.028972+00:00", "meta": {"OBJECT_NAME": "PARS 1", "OBJECT_ID": "2024-039Q", "EPOCH": "2025-12-20T04:48:51.827040", "MEAN_MOTION": 15.41133224, "ECCENTRICITY": 0.0012081, "INCLINATION": 97.4639, "RA_OF_ASC_NODE": 325.2922, "ARG_OF_PERICENTER": 49.6994, "MEAN_ANOMALY": 310.5306, "EPHEMERIS_TYPE": 0, "CLASSIFICATION_TYPE": "U", "NORAD_CAT_ID": 59065, "ELEMENT_SET_NO": 999, "REV_AT_EPOCH": 10103, "BSTAR": 0.0002117, "MEAN_MOTION_DOT": 8.701e-05, "MEAN_MOTION_DDOT": 0}, "tle": {"line1": "1 59065U 24039Q   25354.20059985  .00008701  00000+0  21170-3 0  9999", "line2": "2 59065  97.4639 325.2922 0012081  49.6994 310.5306 15.41133224101032"}}, "geometry": {"type": "Point", "coordinates": [169.0207522094779, 71.76110740741782]}}, {"type": "Feature", "properties": {"norad_id": 59371, "name": "RESURS-P 4", "group": "resource", "lat": -0.5484276296528515, "lon": -59.27927847558703, "alt_km": 472.2542430251251, "timestamp": "2025-12-20T11:30:28.028981+00:00", "meta": {"OBJECT_NAME": "RESURS-P 4", "OBJECT_ID": "2024-061A", "EPOCH": "2025-12-20T03:40:22.571328", "MEAN_MOTION": 15.32139999, "ECCENTRICITY": 0.0001027, "INCLINATION": 97.2555, "RA_OF_ASC_NODE": 300.331, "ARG_OF_PERICENTER": 60.8276, "MEAN_ANOMALY": 299.3069, "EPHEMERIS_TYPE": 0, "CLASSIFICATION_TYPE": "U", "NORAD_CAT_ID": 59371, "ELEMENT_SET_NO": 999, "REV_AT_EPOCH": 9634, "BSTAR": 9.6676e-05, "MEAN_MOTION_DOT": 2.924e-05, "MEAN_MOTION_DDOT": 0}, "tle": {"line1": "1 59371U 24061A   25354.15303902  .00002924  00000+0  96676-4 0  9994", "line2": "2 59371  97.2555 300.3310 0001027  60.8276 299.3069 15.32139999 96340"}}, "geometry": {"type": "Point", "coordinates": [-59.27927847558703, -0.5484276296528515]}}, {"type": "Feature", "properties": {"norad_id": 59625, "name": "LEGION 1", "group": "resource", "lat": 28.812625610434218, "lon": -106.78052739383484, "alt_km": 516.6907256033946, "timestamp": "2025-12-20T11:30:28.028991+00:00", "meta": {"OBJECT_NAME": "LEGION 1", "OBJECT_ID": "2024-081A", "EPOCH": "2025-12-20T04:30:37.605600", "MEAN_MOTION": 15.16547121, "ECCENTRICITY": 0.0003634, "INCLINATION": 97.5209, "RA_OF_ASC_NODE": 68.7631, "ARG_OF_PERICENTER": 283.7552, "MEAN_ANOMALY": 76.3276, "EPHEMERIS_TYPE": 0, "CLASSIFICATION_TYPE": "U", "NORAD_CAT_ID": 59625, "ELEMENT_SET_NO": 999, "REV_AT_EPOCH": 9040, "BSTAR": 0.00015829, "MEAN_MOTION_DOT": 3.02e-05, "MEAN_MOTION_DDOT": 0}, "tle": {"line1": "1 59625U 24081A   25354.18793525  .00003020  00000+0  15829-3 0  9993", "line2": "2 59625  97.5209  68.7631 0003634 283.7552  76.3276 15.16547121 90407"}}, "geometry": {"type": "Point", "coordinates": [-106.78052739383484, 28.812625610434218]}}, {"type": "Feature", "properties": {"norad_id": 59626, "name": "LEGION 2", "group": "resource", "lat": -28.826565981221435, "lon": 73.30995784756095, "alt_km": 520.9081286995151, "timestamp": "2025-12-20T11:30:28.029001+00:00", "meta": {"OBJECT_NAME": "LEGION 2", "OBJECT_ID": "2024-081B", "EPOCH": "2025-12-20T03:43:05.373120", "MEAN_MOTION": 15.16560521, "ECCENTRICITY": 0.0005632, "INCLINATION": 97.5213, "RA_OF_ASC_NODE": 68.8182, "ARG_OF_PERICENTER": 261.3261, "MEAN_ANOMALY": 98.7334, "EPHEMERIS_TYPE": 0, "CLASSIFICATION_TYPE": "U", "NORAD_CAT_ID": 59626, "ELEMENT_SET_NO": 999, "REV_AT_EPOCH": 9040, "BSTAR": 0.00019481, "MEAN_MOTION_DOT": 3.735e-05, "MEAN_MOTION_DDOT": 0}, "tle": {"line1": "1 59626U 24081B   25354.15492330  .00003735  00000+0  19481-3 0  9992", "line2": "2 59626  97.5213  68.8182 0005632 261.3261  98.7334 15.16560521 90406"}}, "geometry": {"type": "Point", "coordinates": [73.30995784756095, -28.826565981221435]}}, {"type": "Feature", "properties": {"norad_id": 60182, "name": "ALOS-4 (DAICHI-4)", "group": "resource", "lat": 36.71991579133846, "lon": 83.25402830790914, "alt_km": 627.9711137011109, "timestamp": "2025-12-20T11:30:28.029011+00:00", "meta": {"OBJECT_NAME": "ALOS-4 (DAICHI-4)", "OBJECT_ID": "2024-123A", "EPOCH": "2025-12-20T04:50:51.954144", "MEAN_MOTION": 14.79474985, "ECCENTRICITY": 0.0001387, "INCLINATION": 97.9224, "RA_OF_ASC_NODE": 88.9427, "ARG_OF_PERICENTER": 101.6124, "MEAN_ANOMALY": 258.5243, "EPHEMERIS_TYPE": 0, "CLASSIFICATION_TYPE": "U", "NORAD_CAT_ID": 60182, "ELEMENT_SET_NO": 999, "REV_AT_EPOCH": 7941, "BSTAR": 0.00019301, "MEAN_MOTION_DOT": 1.39e-05, "MEAN_MOTION_DDOT": 0}, "tle": {"line1": "1 60182U 24123A   25354.20199021  .00001390  00000+0  19301-3 0  9991", "line2": "2 60182  97.9224  88.9427 0001387 101.6124 258.5243 14.79474985 79412"}}, "geometry": {"type": "Point", "coordinates": [83.25402830790914, 36.71991579133846]}}, {"type": "Feature", "properties": {"norad_id": 60452, "name": "LEGION 3", "group": "resource", "lat": 41.544879120372855, "lon": -28.90348402252226, "alt_km": 522.7164791785308, "timestamp": "2025-12-20T11:30:28.029021+00:00", "meta": {"OBJECT_NAME": "LEGION 3", "OBJECT_ID": "2024-146A", "EPOCH": "2025-12-20T01:42:39.461184", "MEAN_MOTION": 15.15833125, "ECCENTRICITY": 0.0015632, "INCLINATION": 45.0021, "RA_OF_ASC_NODE": 270.828, "ARG_OF_PERICENTER": 238.1588, "MEAN_ANOMALY": 121.7769, "EPHEMERIS_TYPE": 0, "CLASSIFICATION_TYPE": "U", "NORAD_CAT_ID": 60452, "ELEMENT_SET_NO": 999, "REV_AT_EPOCH": 7484, "BSTAR": 0.0001754, "MEAN_MOTION_DOT": 3.154e-05, "MEAN_MOTION_DDOT": 0}, "tle": {"line1": "1 60452U 24146A   25354.07129006  .00003154  00000+0  17540-3 0  9990", "line2": "2 60452  45.0021 270.8280 0015632 238.1588 121.7769 15.15833125 74840"}}, "geometry": {"type": "Point", "coordinates": [-28.90348402252226, 41.544879120372855]}}, {"type": "Feature", "properties": {"norad_id": 60453, "name": "LEGION 4", "group": "resource", "lat": 41.09778093108799, "lon": 61.068648590361256, "alt_km": 510.46530567474565, "timestamp": "2025-12-20T11:30:28.029032+00:00", "meta": {"OBJECT_NAME": "LEGION 4", "OBJECT_ID": "2024-146B", "EPOCH": "2025-12-20T03:18:01.161216", "MEAN_MOTION": 15.1589566, "ECCENTRICITY": 0.0008758, "INCLINATION": 45.0393, "RA_OF_ASC_NODE": 2.2456, "ARG_OF_PERICENTER": 350.7384, "MEAN_ANOMALY": 9.3332, "EPHEMERIS_TYPE": 0, "CLASSIFICATION_TYPE": "U", "NORAD_CAT_ID": 60453, "ELEMENT_SET_NO": 999, "REV_AT_EPOCH": 7370, "BSTAR": 0.00018604, "MEAN_MOTION_DOT": 3.362e-05, "MEAN_MOTION_DDOT": 0}, "tle": {"line1": "1 60453U 24146B   25354.13751344  .00003362  00000+0  18604-3 0  9997", "line2": "2 60453  45.0393   2.2456 0008758 350.7384   9.3332 15.15895660 73704"}}, "geometry": {"type": "Point", "coordinates": [61.068648590361256, 41.09778093108799]}}]}